[
    {
        "Altitude(m)": 712168.5944098282,
        "Argument of Periapsis(deg)": 0.0022780242373254137,
        "Eccentricity": 0.0,
        "Inclination(deg)": 45.0,
        "Latitude(deg)": -31.19448790119637,
        "Longitude(deg)": 102.8391318379719,
        "Mean Anomaly(deg)": -46.78425667050383,
        "RAAN(deg)": 239.99784961170835,
        "Satellite Name": "Constellation 1 1075",
        "Satellite Number": 1075,
        "Semi-Major Axis(m)": 7083131.272910544,
        "Time(s)": 38
    },
    {
        "Altitude(m)": 712155.0759874391,
        "Argument of Periapsis(deg)": 0.002337972243570819,
        "Eccentricity": 0.0,
        "Inclination(deg)": 45.0,
        "Latitude(deg)": -31.16012790928772,
        "Longitude(deg)": 102.89335853234158,
        "Mean Anomaly(deg)": -46.72355553025387,
        "RAAN(deg)": 239.9977930225428,
        "Satellite Name": "Constellation 1 1075",
        "Satellite Number": 1075,
        "Semi-Major Axis(m)": 7083131.272910544,
        "Time(s)": 39
    },
    {
        "Altitude(m)": 712141.5518993075,
        "Argument of Periapsis(deg)": 0.0023979202498162246,
        "Eccentricity": 0.0,
        "Inclination(deg)": 45.0,
        "Latitude(deg)": -31.125741258766393,
        "Longitude(deg)": 102.9475432779206,
        "Mean Anomaly(deg)": -46.66285439000397,
        "RAAN(deg)": 239.99773643337716,
        "Satellite Name": "Constellation 1 1075",
        "Satellite Number": 1075,
        "Semi-Major Axis(m)": 7083131.272910544,
        "Time(s)": 40
    },
    {
        "Altitude(m)": 712128.0221931513,
        "Argument of Periapsis(deg)": 0.00245786825606163,
        "Eccentricity": 0.0,
        "Inclination(deg)": 45.0,
        "Latitude(deg)": -31.091328003816344,
        "Longitude(deg)": 103.0016861295519,
        "Mean Anomaly(deg)": -46.60215324975412,
        "RAAN(deg)": 239.9976798442116,
        "Satellite Name": "Constellation 1 1075",
        "Satellite Number": 1075,
        "Semi-Major Axis(m)": 7083131.272910544,
        "Time(s)": 41
    },
    {
        "Altitude(m)": 712114.4869166879,
        "Argument of Periapsis(deg)": 0.002517816262307036,
        "Eccentricity": 0.0,
        "Inclination(deg)": 45.0,
        "Latitude(deg)": -31.056888198549256,
        "Longitude(deg)": 103.05578714215997,
        "Mean Anomaly(deg)": -46.54145210950418,
        "RAAN(deg)": 239.99762325504605,
        "Satellite Name": "Constellation 1 1075",
        "Satellite Number": 1075,
        "Semi-Major Axis(m)": 7083131.272910544,
        "Time(s)": 42
    },
    {
        "Altitude(m)": 712100.9461176555,
        "Argument of Periapsis(deg)": 0.0025777642685524413,
        "Eccentricity": 0.0,
        "Inclination(deg)": 45.0,
        "Latitude(deg)": -31.022421897004783,
        "Longitude(deg)": 103.10984637074978,
        "Mean Anomaly(deg)": -46.48075096925422,
        "RAAN(deg)": 239.9975666658805,
        "Satellite Name": "Constellation 1 1075",
        "Satellite Number": 1075,
        "Semi-Major Axis(m)": 7083131.272910544,
        "Time(s)": 43
    },
    {
        "Altitude(m)": 712087.3998437987,
        "Argument of Periapsis(deg)": 0.002637712274797847,
        "Eccentricity": 0.0,
        "Inclination(deg)": 45.0,
        "Latitude(deg)": -30.98792915315049,
        "Longitude(deg)": 103.16386370230919,
        "Mean Anomaly(deg)": -46.420049829004384,
        "RAAN(deg)": 239.99751007671495,
        "Satellite Name": "Constellation 1 1075",
        "Satellite Number": 1075,
        "Semi-Major Axis(m)": 7083131.272910544,
        "Time(s)": 44
    },
    {
        "Altitude(m)": 712073.8481428775,
        "Argument of Periapsis(deg)": 0.0026976602810432526,
        "Eccentricity": 0.0,
        "Inclination(deg)": 45.0,
        "Latitude(deg)": -30.95341002088166,
        "Longitude(deg)": 103.21783952819634,
        "Mean Anomaly(deg)": -46.35934868875452,
        "RAAN(deg)": 239.99745348754936,
        "Satellite Name": "Constellation 1 1075",
        "Satellite Number": 1075,
        "Semi-Major Axis(m)": 7083131.272910544,
        "Time(s)": 45
    },
    {
        "Altitude(m)": 712060.2910626598,
        "Argument of Periapsis(deg)": 0.0027576082872886585,
        "Eccentricity": 0.0,
        "Inclination(deg)": 45.0,
        "Latitude(deg)": -30.91886455402149,
        "Longitude(deg)": 103.2717737355568,
        "Mean Anomaly(deg)": -46.298647548504604,
        "RAAN(deg)": 239.99739689838376,
        "Satellite Name": "Constellation 1 1075",
        "Satellite Number": 1075,
        "Semi-Major Axis(m)": 7083131.272910544,
        "Time(s)": 46
    },
    {
        "Altitude(m)": 712046.7286509164,
        "Argument of Periapsis(deg)": 0.0028175562935340644,
        "Eccentricity": 0.0,
        "Inclination(deg)": 45.0,
        "Latitude(deg)": -30.88429280632105,
        "Longitude(deg)": 103.32566637971095,
        "Mean Anomaly(deg)": -46.237946408254665,
        "RAAN(deg)": 239.9973403092182,
        "Satellite Name": "Constellation 1 1075",
        "Satellite Number": 1075,
        "Semi-Major Axis(m)": 7083131.272910544,
        "Time(s)": 47
    },
    {
        "Altitude(m)": 712033.1609554451,
        "Argument of Periapsis(deg)": 0.00287750429977947,
        "Eccentricity": 0.0,
        "Inclination(deg)": 45.0,
        "Latitude(deg)": -30.849694831459367,
        "Longitude(deg)": 103.37951751605559,
        "Mean Anomaly(deg)": -46.17724526800481,
        "RAAN(deg)": 239.99728372005265,
        "Satellite Name": "Constellation 1 1075",
        "Satellite Number": 1075,
        "Semi-Major Axis(m)": 7083131.272910544,
        "Time(s)": 48
    },
    {
        "Altitude(m)": 712019.5880240473,
        "Argument of Periapsis(deg)": 0.002937452306024875,
        "Eccentricity": 0.0,
        "Inclination(deg)": 45.0,
        "Latitude(deg)": -30.815070683043103,
        "Longitude(deg)": 103.43332720006423,
        "Mean Anomaly(deg)": -46.11654412775487,
        "RAAN(deg)": 239.9972271308871,
        "Satellite Name": "Constellation 1 1075",
        "Satellite Number": 1075,
        "Semi-Major Axis(m)": 7083131.272910544,
        "Time(s)": 49
    },
    {
        "Altitude(m)": 712006.0099045277,
        "Argument of Periapsis(deg)": 0.0029974003122702807,
        "Eccentricity": 0.0,
        "Inclination(deg)": 45.0,
        "Latitude(deg)": -30.780420414607132,
        "Longitude(deg)": 103.48709548728513,
        "Mean Anomaly(deg)": -46.05584298750501,
        "RAAN(deg)": 239.99717054172152,
        "Satellite Name": "Constellation 1 1075",
        "Satellite Number": 1075,
        "Semi-Major Axis(m)": 7083131.272910544,
        "Time(s)": 50
    },
    {
        "Altitude(m)": 711992.4266447069,
        "Argument of Periapsis(deg)": 0.0030573483185156866,
        "Eccentricity": 0.0,
        "Inclination(deg)": 45.0,
        "Latitude(deg)": -30.74574407961397,
        "Longitude(deg)": 103.54082243334156,
        "Mean Anomaly(deg)": -45.99514184725513,
        "RAAN(deg)": 239.9971139525559,
        "Satellite Name": "Constellation 1 1075",
        "Satellite Number": 1075,
        "Semi-Major Axis(m)": 7083131.272910544,
        "Time(s)": 51
    },
    {
        "Altitude(m)": 711978.8382924206,
        "Argument of Periapsis(deg)": 0.003117296324761092,
        "Eccentricity": 0.0,
        "Inclination(deg)": 45.0,
        "Latitude(deg)": -30.71104173145402,
        "Longitude(deg)": 103.5945079258339,
        "Mean Anomaly(deg)": -45.934440707005166,
        "RAAN(deg)": 239.99705736339035,
        "Satellite Name": "Constellation 1 1075",
        "Satellite Number": 1075,
        "Semi-Major Axis(m)": 7083131.272910544,
        "Time(s)": 52
    },
    {
        "Altitude(m)": 711965.2448954945,
        "Argument of Periapsis(deg)": 0.0031772443310064975,
        "Eccentricity": 0.0,
        "Inclination(deg)": 45.0,
        "Latitude(deg)": -30.67631342344593,
        "Longitude(deg)": 103.64815235672579,
        "Mean Anomaly(deg)": -45.87373956675533,
        "RAAN(deg)": 239.9970007742248,
        "Satellite Name": "Constellation 1 1075",
        "Satellite Number": 1075,
        "Semi-Major Axis(m)": 7083131.272910544,
        "Time(s)": 53
    },
    {
        "Altitude(m)": 711951.6465017892,
        "Argument of Periapsis(deg)": 0.0032371923372519038,
        "Eccentricity": 0.0,
        "Inclination(deg)": 45.0,
        "Latitude(deg)": -30.64155920883591,
        "Longitude(deg)": 103.70175561376307,
        "Mean Anomaly(deg)": -45.81303842650547,
        "RAAN(deg)": 239.99694418505922,
        "Satellite Name": "Constellation 1 1075",
        "Satellite Number": 1075,
        "Semi-Major Axis(m)": 7083131.272910544,
        "Time(s)": 54
    },
    {
        "Altitude(m)": 711938.0431591598,
        "Argument of Periapsis(deg)": 0.0032971403434973088,
        "Eccentricity": 0.0,
        "Inclination(deg)": 45.0,
        "Latitude(deg)": -30.60677914079823,
        "Longitude(deg)": 103.7553177528601,
        "Mean Anomaly(deg)": -45.752337286255504,
        "RAAN(deg)": 239.99688759589367,
        "Satellite Name": "Constellation 1 1075",
        "Satellite Number": 1075,
        "Semi-Major Axis(m)": 7083131.272910544,
        "Time(s)": 55
    },
    {
        "Altitude(m)": 711924.4349154647,
        "Argument of Periapsis(deg)": 0.0033570883497427146,
        "Eccentricity": 0.0,
        "Inclination(deg)": 45.0,
        "Latitude(deg)": -30.571973272435155,
        "Longitude(deg)": 103.80883883000178,
        "Mean Anomaly(deg)": -45.691636146005614,
        "RAAN(deg)": 239.99683100672806,
        "Satellite Name": "Constellation 1 1075",
        "Satellite Number": 1075,
        "Semi-Major Axis(m)": 7083131.272910544,
        "Time(s)": 56
    }
]